E-ST@R-II               
1 41459U 16025D   22199.69035969  .00016608  00000+0  70478-3 0  9996
2 41459  98.1885   7.1707 0144521 162.9518 197.6643 15.14100728342223
AAUSAT 4                
1 41460U 16025E   22199.41856907  .00027418  00000+0  10176-2 0  9990
2 41460  98.1799  13.3643 0124518 139.1765 221.8906 15.20483305342641
BEESAT-4                
1 41619U 16040W   22199.67381180  .00014795  00000+0  48200-3 0  9991
2 41619  97.2141 249.4801 0009223  17.1255 343.0297 15.31886568325506
RAVAN                   
1 41849U 16067B   22199.84763950  .00003630  00000+0  28976-3 0  9997
2 41849  98.0049 337.7449 0013426 235.2430 124.7530 15.00893002310701
CELTEE 1                
1 41850U 16067C   22199.09608368  .00002110  00000+0  18135-3 0  9995
2 41850  98.0005 331.8985 0008191 230.7397 129.3099 14.98556812310342
OPTICUBE 04             
1 41851U 16067D   22199.82561631  .00001306  00000+0  11634-3 0  9991
2 41851  97.9995 331.6603 0007999 231.9728 128.0772 14.97849351310403
AEROCUBE 8D             
1 41852U 16067E   22199.88899494  .00002451  00000+0  21020-3 0  9991
2 41852  97.9982 331.7550 0008835 233.0698 126.9715 14.98473846310408
AEROCUBE 8C             
1 41853U 16067F   22199.87071116  .00001968  00000+0  16992-3 0  9998
2 41853  98.0001 331.5565 0008046 233.3686 126.6796 14.98457245310390
PROMETHEUS 2-1          
1 41854U 16067G   22199.81459230  .00003589  00000+0  29595-3 0  9994
2 41854  97.9992 332.6333 0010573 242.5848 117.4300 14.99672125310445
PROMETHEUS 2-3          
1 41855U 16067H   22199.87346179  .00003555  00000+0  29294-3 0  9997
2 41855  98.0031 332.7754 0008492 246.7045 113.3284 14.99714062310456
INS-1B                  
1 41954U 17008G   22199.66454129  .00013493  00000+0  43557-3 0  9995
2 41954  97.2551 258.9143 0009265 119.6962 240.5204 15.32201609301529
BGUSAT                  
1 41999U 17008BD  22199.75663186  .00033516  00000+0  77167-3 0  9991
2 41999  97.2787 270.0790 0007089 112.3426 247.8574 15.42525466301463
DIDO-2                  
1 42000U 17008BE  22199.71186951  .00007709  00000+0  27677-3 0  9997
2 42000  97.2539 258.2194 0008686 137.8896 222.3013 15.28909388300845
PEASSS                  
1 42015U 17008BV  22199.75178004  .00011955  00000+0  38605-3 0  9998
2 42015  97.2609 262.2416 0006732 131.8141 228.3677 15.32240116301562
AL-FARABI 1             
1 42016U 17008BW  22199.64635436  .00017234  00000+0  50325-3 0  9993
2 42016  97.2674 265.3072 0006231 127.0495 233.1319 15.35360135301834
NAYIF-1 (EO-88)         
1 42017U 17008BX  22199.72368783  .00017812  00000+0  51751-3 0  9997
2 42017  97.2666 265.3984 0006480 126.4141 233.7702 15.35510491301873
UCLSAT                  
1 42765U 17036A   22199.64959427  .00012368  00000+0  42241-3 0  9995
2 42765  97.1947 241.3456 0008596 200.9402 159.1489 15.30407160282627
LITUANICASAT-2          
1 42768U 17036D   22199.66767276  .00028423  00000+0  78563-3 0  9994
2 42768  97.2028 244.3732 0010615 182.7000 177.4189 15.36941627282040
AALTO-1                 
1 42775U 17036L   22199.65013804  .00007314  00000+0  28678-3 0  9990
2 42775  97.1952 236.2326 0011571 207.8509 152.2112 15.25982648281533
URSA MAIOR              
1 42776U 17036M   22199.88154202  .00007866  00000+0  30269-3 0  9995
2 42776  97.1965 237.2152 0011284 205.3639 154.7048 15.26584400281602
COMPASS 2               
1 42777U 17036N   22199.69394161  .00017757  00000+0  54964-3 0  9993
2 42777  97.2020 243.6185 0009385 186.9503 173.1612 15.33483613281936
DIAMOND RED             
1 42783U 17036U   22199.36773519  .00007792  00000+0  28825-3 0  9997
2 42783  97.1971 239.1058 0009477 210.6960 149.3727 15.27914437281668
PEGASUS                 
1 42784U 17036V   22199.65574662  .00011682  00000+0  41080-3 0  9999
2 42784  97.1964 240.5842 0009285 205.5641 154.5142 15.29462643281785
DIAMOND GREEN           
1 42785U 17036W   22199.62875716  .00005974  00000+0  22207-3 0  9998
2 42785  97.1974 239.4225 0009298 210.7708 149.2987 15.27853966281772
DIAMOND BLUE            
1 42786U 17036X   22199.69347249  .00008819  00000+0  32631-3 0  9994
2 42786  97.1973 239.4766 0009334 210.8844 149.1848 15.27869741281789
NUDTSAT                 
1 42787U 17036Y   22199.93293300  .00020446  00000+0  60897-3 0  9995
2 42787  97.2007 245.1888 0008246 188.7081 171.4030 15.34686101281927
SUCHAI                  
1 42788U 17036Z   22199.67982346  .00014099  00000+0  46708-3 0  9994
2 42788  97.1971 242.3249 0008797 198.4038 161.6887 15.31361382281961
SKCUBE                  
1 42789U 17036AA  22199.62696253  .00012271  00000+0  41732-3 0  9991
2 42789  97.1969 241.7053 0008800 200.1762 159.9133 15.30543351281843
VZLUSAT-1               
1 42790U 17036AB  22199.68262132  .00019739  00000+0  59125-3 0  9995
2 42790  97.1995 244.9075 0008119 188.1704 171.9409 15.34514697282034
ROBUSTA-1B              
1 42792U 17036AD  22199.63726958  .00013212  00000+0  44147-3 0  9991
2 42792  97.1968 242.3002 0008376 199.1453 160.9475 15.31101382281890
CICERO 6                
1 42793U 17036AE  22199.84850400  .00008488  00000+0  31492-3 0  9993
2 42793  97.1949 240.1082 0008078 206.9467 153.1355 15.27798077281861
CORVUS BC2              
1 42846U 17042X   22199.91715814  .00000977  00000+0  99105-4 0  9997
2 42846  97.4201  55.4420 0007847 248.3600 111.6785 14.92963890272975
CORVUS BC1              
1 42847U 17042Y   22199.39238850  .00001024  00000+0  10336-3 0  9992
2 42847  97.4203  55.2583 0007504 249.0160 111.0258 14.93065874272903
MIRATA                  
1 43015U 17073C   22199.63899319  .00009129  00000+0  65387-3 0  9994
2 43015  97.6706  93.7870 0239402  78.6430 284.1576 14.84315382251899
MAKERSAT 0              
1 43016U 17073D   22199.63841797  .00006087  00000+0  44723-3 0  9993
2 43016  97.6724  93.2962 0246527  83.1720 279.7474 14.82533971251819
AEROCUBE 7B (OCSD B)    
1 43042U 17071F   22199.55254876  .00445365  92517-4  10161-2 0  9990
2 43042  51.6274 239.8156 0010088   2.6891 357.4170 15.96767804260634
AEROCUBE 7C (OCSD C)    
1 43043U 17071G   22199.54004359  .00288156  41758-4  92055-3 0  9996
2 43043  51.6255 242.7140 0009071   1.1514 358.9511 15.90517557260565
ASGARDIA 1              
1 43049U 17071N   22199.61474822  .00160951  00000+0  81173-3 0  9997
2 43049  51.6281 246.4614 0006156 357.5569   2.5402 15.80600641260529
PROPCUBE 2 (FAUNA)      
1 43052U 17071R   22199.21512488  .00552143  14565-3  10261-2 0  9990
2 43052  51.6181 235.3365 0009597   6.9988 353.1155 16.00398465260626
CORVUS BC3              
1 43118U 18004H   22199.74697327  .00007778  00000+0  28958-3 0  9991
2 43118  97.3606 272.0551 0007543 246.7305 113.3140 15.27728600250994
MICROMAS-2A             
1 43131U 18004W   22199.73540438  .00024513  00000+0  66660-3 0  9993
2 43131  97.3743 279.1122 0005318 221.3923 138.6920 15.37522150251389
SPACEBEE-4              
1 43139U 18004AE  22199.50688320  .00056490  00000+0  11146-2 0  9996
2 43139  97.3834 284.2359 0004737 204.1454 155.9575 15.46982027251649
SPACEBEE-3              
1 43140U 18004AF  22199.86700182  .00136924  00000+0  16517-2 0  9996
2 43140  97.3865 288.9078 0004808 202.6097 157.4949 15.60296363251952
SPACEBEE-2              
1 43141U 18004AG  22199.85531747  .00214189  00000+0  18801-2 0  9993
2 43141  97.3870 290.7085 0005605 209.9039 150.1903 15.68147021252056
SPACEBEE-1              
1 43142U 18004AH  22199.84691074  .00638132  00000+0  24296-2 0  9996
2 43142  97.3819 292.9923 0008469 243.8143 116.2257 15.85985075252186
CICERO 7                
1 43143U 18004AJ  22199.77426698  .00017525  00000+0  52754-3 0  9995
2 43143  97.3723 278.5423 0004241 231.8974 128.1887 15.34411498251377
GOMX-4B                 
1 43196U 18015E   22199.86595807  .00006255  00000+0  23545-3 0  9998
2 43196  97.5378 339.5520 0015720 309.7201  50.2651 15.27375966247955
GOMX-4A                 
1 43197U 18015F   22199.81336355  .00006962  00000+0  24802-3 0  9997
2 43197  97.5377 340.3809 0015418 309.2640 157.3470 15.29149511248014
AEROCUBE 12A            
1 43556U 18046C   22199.78613112  .00021799  00000+0  54002-3 0  9995
2 43556  51.6382  31.0137 0007290 148.7787 211.3632 15.40312109224142
AEROCUBE 12B            
1 43557U 18046D   22199.76425242  .00017382  00000+0  46436-3 0  9994
2 43557  51.6384  36.0447 0007599 144.4713 215.6778 15.38152824224026
SURFSAT                 
1 43614U 18070B   22199.82933226  .00041745  00000+0  56720-3 0  9995
2 43614  93.0288 112.0948 0006993 239.0549 121.0028 15.57445318215942
CP7 (DAVE)              
1 43615U 18070C   22199.73645178  .00038513  00000+0  55279-3 0  9999
2 43615  93.0276 111.8779 0007416 247.2785 112.7695 15.55969849215892
ELFIN-B                 
1 43616U 18070D   22199.87068019  .00145156  00000+0  10287-2 0  9999
2 43616  93.0170 113.3752 0006473 193.1490 166.9615 15.73511734216281
ELFIN-A                 
1 43617U 18070E   22199.75540688  .00174406  00000+0  10627-2 0  9992
2 43617  93.0233 114.7598 0006978 180.1077 180.0198 15.76922670216328
CUBEBEL-1 (BSUSAT-1)    
1 43666U 18083E   22199.86203880  .00009071  00000+0  37985-3 0  9994
2 43666  97.4182 228.1954 0011788 216.8198 268.5978 15.23711673206266
CICERO 10               
1 43690U 18088A   22199.73145004  .00007447  00000+0  29381-3 0  9991
2 43690  85.0368 295.5700 0014380  40.2052 320.0252 15.25267784204525
IRVINE01                
1 43693U 18088D   22199.74552490  .00039486  00000+0  98938-3 0  9998
2 43693  85.0284 289.6009 0010086 359.7960   0.3285 15.39840351205039
PROXIMA I               
1 43694U 18088E   22199.72371362  .00008658  00000+0  32498-3 0  9990
2 43694  85.0301 292.1888 0016618   6.1603 353.9843 15.26910747204745
PROXIMA II              
1 43696U 18088G   22199.72431696  .00008666  00000+0  32550-3 0  9997
2 43696  85.0303 292.2080 0016662   6.0886 354.0558 15.26887453204736
